CIC_OEM_VERS = 2.0
ORIGINATOR   = C²ERES
Date         = 08-August-2016 18:10:48

TARGET_NAME  = SATURN
TARGET_ID    = OBJECT-saturn

CENTER_NAME  = SUN
REF_FRAME    = ECLIPTICJ2000
TIME_SYSTEM  = UTC

META_START

COLUMN #01   : Day of the date in (MJD)
COLUMN #02   : Fractional seconds in the day (in seconds)
COLUMN #03   : Latitude  of the target body (in degree)
COLUMN #04   : Longitude of the target body (in degree)
COLUMN #05   : The radii of the target body (in km)

META_STOP

58626	61986.1593783	-0.374475398237	109.845628681	1395222902.51	
58626	61986.1593783	-0.374414295618	109.828594143	1394753676.96	
58626	83586.1593783	-0.375815132027	109.832808962	1394274175.14	
58627	18786.1593783	-0.388978579137	109.840661782	1393504594.5	
58627	40386.1593783	-0.402153955139	109.848415166	1392736759.32	
58627	61986.1593783	-0.415340508274	109.856089907	1391970832.23	
58627	83586.1593783	-0.428539247123	109.863690739	1391206804.6	
58628	18786.1593783	-0.441750467695	109.871219608	1390444664.22	
58628	40386.1593783	-0.454974186838	109.878677712	1389684401.19	
58628	61986.1593783	-0.468210305322	109.886065985	1388926007.09	
58628	83586.1593783	-0.481458670052	109.893385234	1388169474.34	
58629	18786.1593783	-0.494719100955	109.900636207	1387414795.85	
58629	40386.1593783	-0.507991403935	109.907819608	1386661964.81	
58629	61986.1593783	-0.521275377668	109.914936118	1385910974.58	
58629	83586.1593783	-0.534570817427	109.921986399	1385161818.62	
58630	18786.1593783	-0.547877517337	109.928971096	1384414490.48	
58630	40386.1593783	-0.561195271778	109.935890844	1383668983.71	
58630	61986.1593783	-0.574523876268	109.942746266	1382925291.91	
58630	83586.1593783	-0.587863128047	109.949537977	1382183408.71	
58631	18786.1593783	-0.601212826463	109.956266579	1381443327.71	
58631	40386.1593783	-0.614572773228	109.962932672	1380705042.53	
58631	61986.1593783	-0.62794277259	109.969536842	1379968546.81	
58631	83586.1593783	-0.641322631446	109.976079673	1379233834.14	
58632	18786.1593783	-0.654712159413	109.982561738	1378500898.16	
58632	40386.1593783	-0.66811116887	109.988983604	1377769732.47	
58632	61986.1593783	-0.681519474982	109.995345832	1377040330.67	
58632	83586.1593783	-0.694936895701	110.001648976	1376312686.38	
58633	18786.1593783	-0.708363251766	110.007893583	1375586793.18	
58633	40386.1593783	-0.721798366684	110.014080195	1374862644.67	
58633	61986.1593783	-0.735242066709	110.020209346	1374140234.46	
58633	83586.1593783	-0.748694180823	110.026281565	1373419556.13	
58634	18786.1593783	-0.762154540699	110.032297374	1372700603.27	
58634	40386.1593783	-0.775622980674	110.038257292	1371983369.47	
58634	61986.1593783	-0.789099337715	110.044161828	1371267848.34	
58634	83586.1593783	-0.802583451382	110.050011488	1370554033.46	
58635	18786.1593783	-0.816075163793	110.055806771	1369841918.43	
58635	40386.1593783	-0.829574319589	110.061548172	1369131496.85	
58635	61986.1593783	-0.843080765893	110.067236178	1368422762.33	
58635	83586.1593783	-0.856594352275	110.072871274	1367715708.49	
58636	18786.1593783	-0.870114930713	110.078453936	1367010328.93	
58636	40386.1593783	-0.883642355556	110.083984637	1366306617.28	
58636	61986.1593783	-0.897176483487	110.089463844	1365604567.17	
58636	83586.1593783	-0.910717173486	110.094892019	1364904172.24	
58637	18786.1593783	-0.924264286789	110.100269619	1364205426.14	
58637	40386.1593783	-0.937817686859	110.105597095	1363508322.52	
58637	61986.1593783	-0.951377239342	110.110874896	1362812855.07	
58637	83586.1593783	-0.964942812036	110.116103462	1362119017.45	
58638	18786.1593783	-0.978514274853	110.12128323	1361426803.35	
58638	40386.1593783	-0.992091499784	110.126414634	1360736206.49	
58638	61986.1593783	-1.00567436087	110.131498101	1360047220.58	
58638	83586.1593783	-1.01926273416	110.136534054	1359359839.35	
58639	18786.1593783	-1.03285649768	110.141522911	1358674056.55	
58639	40386.1593783	-1.0464555314	110.146465086	1357989865.92	
58639	61986.1593783	-1.06005971721	110.151360989	1357307261.26	
58639	83586.1593783	-1.07366893887	110.156211024	1356626236.35	
58640	18786.1593783	-1.087283082	110.161015592	1355946784.99	
58640	40386.1593783	-1.10090203404	110.165775089	1355268901.01	
58640	61986.1593783	-1.11452568419	110.170489908	1354592578.26	
58640	83586.1593783	-1.12815392345	110.175160436	1353917810.58	
58641	18786.1593783	-1.14178664451	110.179787056	1353244591.86	
58641	40386.1593783	-1.15542374178	110.184370148	1352572915.99	
